{
    "links": {
        "self": "http://www.neowsapp.com/rest/v1/neo/3619462?api_key=iIulBulltgU6a56xZRHN4H3l9WmuAYTsLGpBGhQ2"
    },
    "id": "3619462",
    "neo_reference_id": "3619462",
    "name": "(2012 XM16)",
    "designation": "2012 XM16",
    "nasa_jpl_url": "http://ssd.jpl.nasa.gov/sbdb.cgi?sstr=3619462",
    "absolute_magnitude_h": 25.9,
    "estimated_diameter": {
        "kilometers": {
            "estimated_diameter_min": 0.0175612318,
            "estimated_diameter_max": 0.0392681082
        },
        "meters": {
            "estimated_diameter_min": 17.561231848,
            "estimated_diameter_max": 39.2681081809
        },
        "miles": {
            "estimated_diameter_min": 0.0109120402,
            "estimated_diameter_max": 0.0244000636
        },
        "feet": {
            "estimated_diameter_min": 57.6155918963,
            "estimated_diameter_max": 128.8323800441
        }
    },
    "is_potentially_hazardous_asteroid": false,
    "close_approach_data": [
        {
            "close_approach_date": "1953-12-10",
            "close_approach_date_full": "1953-Dec-10 02:13",
            "epoch_date_close_approach": -506814420000,
            "relative_velocity": {
                "kilometers_per_second": "14.7193601244",
                "kilometers_per_hour": "52989.6964479505",
                "miles_per_hour": "32925.736662339"
            },
            "miss_distance": {
                "astronomical": "0.0647880993",
                "lunar": "25.2025706277",
                "kilometers": "9692161.656628491",
                "miles": "6022429.9896395358"
            },
            "orbiting_body": "Earth"
        },
        {
            "close_approach_date": "2012-12-16",
            "close_approach_date_full": "2012-Dec-16 20:38",
            "epoch_date_close_approach": 1355690280000,
            "relative_velocity": {
                "kilometers_per_second": "13.0007072661",
                "kilometers_per_hour": "46802.5461578408",
                "miles_per_hour": "29081.282083465"
            },
            "miss_distance": {
                "astronomical": "0.0079961543",
                "lunar": "3.1105040227",
                "kilometers": "1196207.651471341",
                "miles": "743288.9678568658"
            },
            "orbiting_body": "Earth"
        }
    ],
    "orbital_data": {
        "orbit_id": "12",
        "orbit_determination_date": "2019-04-23 07:24:10",
        "first_observation_date": "2012-12-06",
        "last_observation_date": "2012-12-13",
        "data_arc_in_days": 7,
        "observations_used": 58,
        "orbit_uncertainty": "7",
        "minimum_orbit_intersection": ".00315941",
        "jupiter_tisserand_invariant": "3.244",
        "epoch_osculation": "2459000.5",
        "eccentricity": ".6335320517898689",
        "semi_major_axis": "2.363194982146248",
        "inclination": "2.185410220952638",
        "ascending_node_longitude": "91.0655054283594",
        "orbital_period": "1326.929228866614",
        "perihelion_distance": ".8660352163276128",
        "perihelion_argument": "41.30981892512489",
        "aphelion_distance": "3.860354747964883",
        "perihelion_time": "2458964.635754642146",
        "mean_anomaly": "9.730080586027499",
        "mean_motion": ".2713030899978676",
        "equinox": "J2000",
        "orbit_class": {
            "orbit_class_type": "APO",
            "orbit_class_description": "Near-Earth asteroid orbits which cross the Earth’s orbit similar to that of 1862 Apollo",
            "orbit_class_range": "a (semi-major axis) > 1.0 AU; q (perihelion) < 1.017 AU"
        }
    },
    "is_sentry_object": false
}